STARLINK-35436          
1 65932U 25225Y   26068.52188878  .00032533  00000+0  11062-2 0  9997
2 65932  53.1603 166.3686 0000879 147.9088 212.1967 15.30187412 24389
2025-313BC              
1 67298U 25313BC  26068.18968176  .00075331  00000+0  26410-2 0  9997
2 67298  97.3985 144.8110 0008478 328.9209  31.1528 15.29126358  7890
